Erfnumber,sign,Illuminati,1st,3rd,Height,Width,Area,NumberofSi,NrofSidesT,StreetName,BuildingNa,longitude,latitude,BusinessSh,TenantName,Encroachme,1stParty,3rdParty,Approximat,DateCreate,DateUpdate,hae
94836,flatsgn,Yes,No,Yes,20,15,300,1,1,Orange,1 on Orange,18.4135177147256,-33.9273346364481,McDonalds,McDonalds,Yes Certain,McDonalds,H&M,80,2015-10-14T13:31:53Z,NA,71.0873705631375
94836,flatsgn,Yes,Yes,No,1,1,1,1,1,Kloof,1 on Kloof,18.4133784924191,-33.9274353045293,McDonalds,NA,Yes Certain,McDonalds,NA,100,2015-10-14T13:40:45Z,NA,64.6815929076056
94836,flatsgn,Yes,No,Yes,15,10,150,1,1,Kloof,1 on Orange,18.4131376551855,-33.9275957262222,McDonalds,NA,Yes Certain,McDonalds,Little Dragon,100,2015-10-14T13:52:46Z,NA,64.0225300735995
96236,flatsgn,Yes,Yes,No,0.3,4,1.2,1,1,Kloof,39 on Kloof,18.4125464882957,-33.9281507582607,Dark Paradise,NA,Yes Certain,Dark Paradise,NA,100,2015-10-14T14:09:00Z,NA,62.4531408340565
96236,flatsgn,No,Yes,No,0.5,1.5,0.75,1,1,Kloof,39 on Kloof,18.4126079007761,-33.9281579901374,Indie,Indie,Yes Certain,Indie,NA,50,2015-10-14T14:13:02Z,NA,61.440800631732
96137,flatsgn,Yes,Yes,No,1.5,5,7.5,1,1,Rheede,Rheede Centre,18.4124470740408,-33.9293663174797,Rheede street Mall,NA,Yes Certain,Rheede street mall,NA,250,2015-10-15T12:43:41Z,NA,64.7330929847806
96137,flatsgn,Yes,Yes,No,0.3,2,0.6,1,1,Rheede,Rheede Centre,18.4124668954387,-33.929366805615,Sawaddee,NA,Yes Certain,Sawaddee,NA,150,2015-10-15T12:46:59Z,NA,68.2010111002467
94839,flatsgn,Yes,No,Yes,2,5,10,1,1,Kloof,51 on Kloof,18.4117988660501,-33.928914885032,Cell Corner,Cell Corner,Yes Certain,Cell Corner,New Edge,300,2015-10-15T13:43:34Z,NA,71.8664549492914
94839,flatsgn,Yes,Yes,No,1,3,3,1,1,Kloof,51 on Kloof,18.4117178638255,-33.9290079659941,I love NY,NA,Yes Certain,I love NY,NA,200,2015-10-15T13:52:05Z,NA,73.9110464914318
94839,flatsgn,Yes,No,Yes,2,9,18,1,1,Kloof,51 on Kloof,18.4117161763161,-33.9290143273806,I love NY,NA,Yes Certain,I love NY,New Edge,250,2015-10-15T13:55:09Z,NA,76.3314283332452
94836,flatsgn,Yes,Yes,No,0.5,1,0.5,1,1,Kloof,1 on Kloof,18.4133012730632,-33.9274525947909,McDonalds,McDonalds,Yes Certain,McCafe,NA,50,2015-10-14T13:44:45Z,NA,52.6379876862152
94863,flatsgn,Yes,Yes,No,0.5,2,1,1,1,Kloof,73 on Kloof,18.4108353814281,-33.9299966024023,Statravel,NA,Yes Certain,Statravel,NA,100,2015-10-15T14:12:22Z,NA,70.8133128191779
94863,flatsgn,Yes,Yes,No,0.5,1.5,0.75,1,1,Kloof,Ocean Basket,18.4104481530703,-33.9302473369961,Ocean Basket,NA,Yes Certain,Ocean Basket,NA,100,2015-10-15T14:28:05Z,NA,81.1485790583447
161541,flatsgn,Yes,Yes,No,0.5,7,3.5,1,1,Kloof,50 on Kloof,18.411126720935,-33.9296432498307,Woolworths,Woolworths,Yes Certain,Woolworths,NA,100,2015-10-15T14:55:55Z,NA,85.0588837925662
161541,flatsgn,No,Yes,No,0.5,2,1,1,1,Kloof,Lifestyle Kloof,18.411109237354,-33.9297285852999,Wellness warehouse,Wellness warehouse,Yes Certain,Wellness warehouse,NA,100,2015-10-15T15:04:36Z,NA,79.882016765443
161541,flatsgn,Yes,Yes,No,4,3,12,1,1,Kloof street,Lifestyle Kloof,18.4114098157965,-33.9292366809813,Knead,Knead,Yes Certain,Knead,NA,150,2015-10-15T15:54:42Z,NA,76.5886691248399
161541,flatsgn,Yes,Yes,No,2,3,6,1,1,Kloof street,Lifestyle Kloof,18.4114003787023,-33.9291856468091,Wellness warehouse,Wellness warehouse,Yes Certain,Wellness warehouse,NA,150,2015-10-15T15:57:23Z,NA,71.9370061710278
161541,flatsgn,Yes,Yes,No,2,3,6,1,1,Kloof street,Lifestyle Kloof,18.4113824480001,-33.9291852009787,Woolworths,Woolworths,Yes Certain,Woolworths,NA,100,2015-10-15T16:02:13Z,NA,69.1343768118521
161541,flatsgn,Yes,Yes,No,1,2,2,1,1,Kloof street,Lifestyle Kloof,18.411328455489,-33.9292336618658,Interpark,Interpark,Yes Certain,Lifestyle on Kloof,NA,50,2015-10-15T16:05:28Z,NA,68.5006760294017
161541,flatsgn,Yes,Yes,No,0.5,4,2,1,1,Kloof street,Lifestyle Kloof,18.411191689306,-33.9289479458751,Zone fitness,Zone fitness,Yes Certain,Zone fitness,NA,150,2015-10-15T16:19:45Z,NA,73.815476079581
161541,flatsgn,Yes,Yes,No,0.5,3,1.5,1,1,Kloof street,Lifestyle Kloof,18.4113897854236,-33.929062558101,Precision  laundry,Precision laundry,Yes Certain,Precision laundry,NA,100,2015-10-15T16:23:46Z,NA,75.4114707494531
161541,flatsgn,Yes,Yes,No,1,2,2,1,1,Park road,Lifestyle Kloof,18.4114145702026,-33.9290560075939,Sure traveways,Sure travelways,Yes Certain,Sure travelways,NA,100,2015-10-15T16:29:03Z,NA,76.0422465802083
161541,flatsgn,Yes,Yes,No,1.5,10,15,1,1,Kloof,50 on Kloof,18.4111250078079,-33.929734827068,Wellness warehouse,NA,Yes Certain,Wellness warehouse,NA,100,2015-10-15T15:00:38Z,NA,76.6871401239866
94443,flatsgn,Yes,Yes,No,0.3,2,0.6,1,1,Kloof street,4 Kloof,18.4115790761945,-33.9289364592729,Vidae Caffe,Vidae Caffe,Yes Certain,Vidae Caffe,NA,100,2015-10-16T09:47:37Z,2015-10-16T09:57:41Z,74.8534373556908
94443,flatsgn,Yes,Yes,No,2,0.3,0.6,1,1,Kloof street,4 Kloof,18.411850511399,-33.9287707710184,Metropolis,Metropolis,Yes Certain,Metropolis,NA,450,2015-10-16T10:08:22Z,NA,69.7809319591107
96229,flatsgn,Yes,No,No,1,8,8,1,1,Kloof street,Kwik spar on Kloof,18.4124039533202,-33.9281901355,Kwik spar,Kwik spar,Yes Certain,Kwik spar,NA,150,2015-10-16T10:20:33Z,NA,66.9220853738514
96229,flatsgn,Yes,Yes,No,1,1,1,1,1,Kloof street,Kwik spar on Kloof,18.4124900172617,-33.9281446507452,Kwik spar,Kwik spar,Yes Certain,Tops,NA,200,2015-10-16T10:36:06Z,NA,72.9554889105803
96214,flatsgn,No,Yes,No,0.5,2,1,1,1,Kloof street,E.C,18.4129359837079,-33.9277432001593,Eurocasa,Eurocasa,Yes Certain,Eurocasa,NA,100,2015-10-16T11:31:05Z,2015-10-16T11:53:33Z,70.2214464614701
96214,flatsgn,No,Yes,No,0.5,3,1.5,1,1,Kloof street,E.C,18.4131077926391,-33.9276129846265,Rochebobois,Rochebobois,Yes Certain,Rochebobois,NA,150,2015-10-16T11:53:45Z,NA,84.5327621286633
96214,flatsgn,Yes,Yes,No,0.5,4,2,1,1,Kloof street,E.C,18.4128638072272,-33.9278703359517,Rochebobois,Rochbobois,Yes Certain,Rochebobois,NA,150,2015-10-16T11:40:54Z,2015-10-16T11:52:54Z,74.8024273808076
96068,flatsgn,Yes,No,Yes,6,5,30,1,1,Buitensingel,8 on Kloof,18.4133642280691,-33.9269708697583,H. M,HM,Yes Certain,Buitenkloof studios,Hey fashionista,100,2015-10-16T12:22:58Z,NA,73.5503983429317
163560,flatsgn,Yes,Yes,No,0.3,2.5,0.75,1,1,Union,Kloof street junction,18.4087806736057,-33.9321419625186,Tokyo,NA,Yes Certain,Tokyo,NA,100,2015-10-19T10:59:17Z,2015-10-19T11:28:34Z,85.0035169751228
163560,flatsgn,Yes,Yes,No,1,10,10,1,1,Union,Kloof street junction,18.4088247508439,-33.9321338218463,Royo Kloof,NA,Yes Certain,Royo Kloof,NA,60,2015-10-19T11:03:46Z,2015-10-19T11:27:27Z,86.3592945669202
163560,flatsgn,Yes,Yes,No,0.8,2.5,2,1,1,Kloof street,Kloof street junction,18.4086959533695,-33.9321185085735,Tokyo,NA,Yes Certain,Tokyo,NA,100,2015-10-19T11:09:47Z,2015-10-19T11:28:00Z,85.4948380151507
2250,flatsgn,Yes,Yes,No,1,4,4,1,1,Kloof,161 on Kloof,18.4068284908196,-33.9349187892461,Premier,NA,Yes Certain,Premier,NA,200,2015-10-19T13:16:22Z,NA,119.540452137099
2250,flatsgn,Yes,Yes,No,1.5,7,10.5,1,1,Kloof,155 on Kloof,18.4068546266286,-33.9348742718763,Premier,NA,Yes Certain,Premier,NA,100,2015-10-19T13:22:07Z,NA,116.367717691334
94706,flatsgn,No,Yes,No,0.5,10,5,1,1,Kloof,NA,18.4083733,-33.9323159,Topolino,NA,Yes Certain,Topolino Cafe,NA,520,2015-10-19T08:55:29Z,NA,0
2361,flatsgn,No,Yes,No,1,5,5,1,1,Kloof,NA,18.4074439,-33.9340139,The black sheep,NA,Yes Certain,The black sheep,NA,500,2015-10-19T10:42:20Z,NA,0
3001,flatsgn,No,Yes,No,0.2,1,0.2,1,1,De Lorenz,NA,18.4074265,-33.9338381,Medication Centre,NA,Yes Certain,Mediation Centre,NA,500,2015-10-19T10:58:21Z,NA,0
2361,flatsgn,Yes,Yes,No,1,2,2,1,1,Kloof,NA,18.407397,-33.9340361,The black sheep,NA,Yes Certain,The black Sheep,NA,500,2015-10-19T11:09:03Z,NA,0
3223,flatsgn,Yes,Yes,No,1,4,4,1,1,Kloof,NA,18.4073313,-33.9341352,Slipcovers,NA,Yes Certain,The Black House,NA,500,2015-10-19T11:10:55Z,NA,0
1593,flatsgn,No,Yes,No,1,4,4,1,1,Kloof,NA,18.4070791,-33.9344345,I love my hood,NA,Yes Certain,I love my hood,NA,1500,2015-10-19T11:18:04Z,NA,0
3223,flatsgn,Yes,Yes,No,1,8,8,1,1,Kloof,NA,18.4073085,-33.9341518,Mark Miller furbiture design,NA,Yes Certain,Mark miller furniture design,NA,500,2015-10-19T11:13:46Z,NA,0
94864,projctng,Yes,Yes,No,3,1,3,1,2,Kloof,Ocean Basket,18.4105734454075,-33.930228418811,Ocean Basket,Ocean Basket,Yes Certain,Ocean Basket,NA,1000,2015-10-15T14:24:16Z,2015-10-15T14:27:46Z,79.8884960725065
94788,projctng,No,No,Yes,3,0.5,1.5,1,2,Kloof,Beckham House,18.4125363357318,-33.9281896067477,The Lot,The lot,Yes Certain,The Lot,Lila,450,2015-10-14T14:49:42Z,NA,100.021309664854
94839,projctng,Yes,Yes,No,0.8,0.8,0.6400000000000001,1,1,Kloof,51 on Kloof,18.4117826317891,-33.9289756321192,I love NY slice,NA,Yes Certain,I love NY,NA,820,2015-10-15T13:47:56Z,NA,70.3237086116311
94839,projctng,Yes,Yes,No,0.8,0.7,0.5599999999999999,1,2,Kloof,51 on Kloof,18.411698740665,-33.9290495131846,Chalk & Cork,NA,Yes Certain,Chalk & Cork,NA,780,2015-10-15T13:58:48Z,NA,77.8170869208982
94788,projctng,No,Yes,No,3,0.5,1.5,1,2,Kloof,Beckham House,18.4124151942688,-33.9283863181101,The lot,The lot,Yes Certain,The lot,NA,450,2015-10-14T14:56:16Z,NA,60.7950561762459
94854,projctng,Yes,Yes,No,0.5,1,0.5,1,2,Kloof,69 on Kloof,18.4108508111817,-33.9299669775459,Mitico,NA,Yes Certain,Mitico,NA,500,2015-10-15T14:09:10Z,NA,86.3551206890467
94862,projctng,Yes,Yes,No,0.5,0.5,0.25,3,2,Kloof,NA,18.4106726627013,-33.9301221724857,Once in Cape Town,NA,Yes Certain,Once in Cape Town,NA,350,2015-10-15T14:18:30Z,NA,75.6505787596835
94863,projctng,Yes,Yes,No,0.3,1,0.3,1,2,Kloof,Ocean Basket,18.4104379895505,-33.9302384964608,Ocean Basket,Ocean Basket,Yes Certain,Ocean Basket,NA,1100,2015-10-15T14:31:32Z,NA,84.6785676176619
161541,projctng,Yes,Yes,No,1,1,1,1,2,Kloof street,Wellness warehouse,18.4113113110337,-33.9293941194691,Knead,Knead,Yes Certain,Knead,NA,950,2015-10-15T15:28:46Z,NA,77.775804900869
161541,projctng,Yes,Yes,No,1,0.5,0.5,1,2,Kloof street,Lifestyle Kloof,18.4112869087773,-33.9290568638414,Interpark,Interpark,Yes Certain,Interpark,NA,450,2015-10-15T16:09:04Z,NA,71.3378096773239
161541,projctng,Yes,Yes,No,1.5,0.5,0.75,1,2,Kloof street,Lifestyle Kloof,18.4112107402206,-33.9289093261855,Photographic,Photographic,Yes Certain,Photographic,NA,450,2015-10-15T16:12:12Z,NA,72.6459548513404
161541,projctng,Yes,Yes,No,5,0.5,2.5,1,2,Park road,Lifestyle Kloof,18.4112073814827,-33.92892920154,Woolworths,Woolworths,Yes Certain,Woolworths,NA,450,2015-10-15T16:16:12Z,NA,74.6239020564005
96128,projctng,Yes,Yes,No,0.5,4,2,1,1,Kloof street,42 Kloof street,18.4115232645149,-33.9291063894682,Nandos,Nandos,Yes Certain,Nandos,NA,150,2015-10-16T09:40:20Z,NA,71.2387101968574
96229,projctng,Yes,No,Yes,0.5,1.5,0.75,1,2,Kloof street,Kwik spar on Kloof,18.4124779115796,-33.9280949456038,Kwik spar,Kwik spar,Yes Certain,Kwik spar,ABSA,1450,2015-10-16T10:32:55Z,NA,70.4044519439901
96229,projctng,Yes,Yes,No,2,1,2,2,2,Kloof street,Kwik spar on Kloof,18.4124400816958,-33.9281535420289,Kwik spar,Kwik spar,Yes Certain,Kwik spar,NA,950,2015-10-16T10:39:27Z,NA,72.900001578325
96229,projctng,No,Yes,No,2,0.5,1,3,2,Kloof street,Kwik spar on Kloof,18.4124262348312,-33.9282184147986,Kwik spar,Kwik spar,Yes Certain,Tops,NA,2000,2015-10-16T10:43:45Z,NA,72.3771909492801
94999,projctng,No,Yes,No,0.3,1,0.3,1,2,Kloof,87 on Kloof,18.4102431981612,-33.9305870534461,La la linen,Lala linen,Yes Certain,Lala linen,NA,950,2015-10-16T14:34:22Z,NA,83.0312738129527
163560,projctng,Yes,Yes,No,0.8,2,1.6,1,1,Kloof,Kloof street junction,18.4084929831009,-33.9325376680876,Domino's  Pizza,NA,Yes Certain,Domino's Pizza,NA,250,2015-10-19T12:25:07Z,NA,87.3326977276454
163560,projctng,Yes,Yes,No,0.5,6,3,1,1,Kloof,Kloof street junction,18.4081597482938,-33.9327944965961,Yindee's,NA,Yes Certain,Yindee's,NA,150,2015-10-19T12:35:58Z,NA,114.94089190634
1487,projctng,Yes,Yes,No,0.3,0.8,0.24,1,2,Kloof,147 on Kloof,18.407217670902,-33.9344771201241,Citi,NA,Yes Certain,Citi,NA,1000,2015-10-19T13:43:11Z,NA,107.954474194907
1496,projctng,Yes,Yes,No,1.5,1,1.5,1,2,Kloof,139 on Kloof,18.4074923034271,-33.9342152874917,Steer,NA,Yes Certain,Sterr,NA,950,2015-10-19T13:56:18Z,2015-11-19T17:48:38Z,99.967564851039
94705,projctng,Yes,No,Yes,0.5,0.5,0.25,2,2,Kloof,NA,18.4083599,-33.9322892,Topolini Cafe,NA,Yes Certain,National lottery,NA,1500,2015-10-19T08:49:30Z,NA,0
94705,projctng,Yes,Yes,No,0.5,1,0.5,1,2,Kloof,NA,18.4083626,-33.9322892,Topolino Cafe,NA,Yes Certain,Topolino Cafe,NA,1230,2015-10-19T08:52:24Z,NA,0
1509,projctng,No,Yes,No,0.5,2,1,1,2,Kloof,NA,18.4081359,-33.9330659,Toni's on kloof,NA,Yes Certain,Toni's on kloof,NA,2,2015-10-19T09:43:52Z,NA,0
1508,projctng,No,Yes,No,0.5,1,0.5,1,2,Kloof,NA,18.408089,-33.9331215,Shellys gourmet vsfe,NA,Yes Certain,Shelleys gourmet cafe,NA,1000,2015-10-19T09:50:26Z,NA,0
2700,projctng,No,Yes,No,0.5,1,0.5,1,2,Kloof,NA,18.4077886,-33.9335388,Swift dry cleaners,NA,Yes Certain,Swift dry cleaners,NA,2500,2015-10-19T10:03:16Z,NA,0
2361,projctng,No,Yes,No,0.5,1,0.5,1,2,Kloof,NA,18.4074546,-33.9339994,Black sheep,NA,Yes Certain,Afrisign,NA,1000,2015-10-19T10:49:59Z,NA,0
3001,projctng,No,Yes,No,0.5,0.5,0.25,1,2,De lorenz,NA,18.407452,-33.9338303,Tamboers Winkel,NA,Yes Certain,Tamboers Winkel,NA,500,2015-10-19T10:54:35Z,NA,0
1592,projctng,Yes,Yes,No,0.5,1,0.5,1,2,Kloof,NA,18.4068927,-33.9346503,Gardens Continental Butchery,NA,Yes Certain,Gardens Continental Butchery,NA,1000,2015-10-19T11:27:57Z,NA,0
1599,projctng,Yes,Yes,No,1,2,2,1,2,Kloof,NA,18.4068538,-33.9346815,Continental Deli,NA,Yes Certain,Continental deli,NA,1000,2015-10-19T11:31:20Z,NA,0
1600,projctng,No,Yes,No,0.5,2,1,1,2,Kloof,NA,18.4065802,-33.9350631,Loft living,NA,Yes Certain,Loft living,NA,1000,2015-10-19T11:33:45Z,NA,0
96237,bndrywll,No,Yes,No,1,1,1,1,1,Kloof street,Rozenhof,18.4126800538698,-33.927949648356,Dental surgeon,Dental surgeon,Yes Certain,Dental surgeon,NA,2450,2015-10-16T10:49:13Z,NA,72.8576238556539
96237,bndrywll,No,Yes,No,1,1,1,1,1,Kloof street,Rozenhof,18.4127482766743,-33.9279060569239,Dental surgeon,Dental surgeon,Yes Certain,Dental surgeon,NA,3950,2015-10-16T10:55:24Z,NA,68.3939185501174
96237,bndrywll,No,Yes,No,0.5,1,0.5,1,2,Kloof street,Rozenhof,18.4127057633317,-33.9279750651013,Rozenhof,Rozenhof,Yes Certain,Rozenhof offices,NA,3950,2015-10-16T10:59:46Z,NA,59.6030089549434
149639,bndrywll,No,Yes,No,1,0.5,0.5,3,1,Kloof street,18 on Kloof,18.4127885798365,-33.9279152697957,Bardellis,Bardellis,Yes Certain,Bardellis,NA,3950,2015-10-16T11:11:01Z,NA,75.2553203950883
149639,bndrywll,No,Yes,No,0.4,0.2,0.08000000000000002,1,1,Kloof street,18 on Kloof,18.412868451843,-33.9278999115693,Bardellis,Bardellis,Yes Certain,Bardellis,NA,3950,2015-10-16T11:23:26Z,NA,77.1848653960965
149639,bndrywll,Yes,Yes,No,0.5,2,1,1,1,Kloof street,18 on Kloof,18.4127437512766,-33.9279469235305,Bardellis,Bardellis,Yes Certain,Bardellis,NA,3450,2015-10-16T11:27:02Z,NA,73.5239991089392
1493,bndrywll,Yes,Yes,No,2.5,1,2.5,1,2,145 on Kloof,145 on Kloof,18.4072935576047,-33.934415802968,Jawitz,NA,Yes Certain,Jawitz,NA,3000,2015-10-19T13:46:11Z,NA,104.444331009028
1494,bndrywll,No,Yes,No,3,1,3,3,2,Kloof,143 on Kloof,18.4073300719701,-33.9343883447958,Pam Golding,NA,Yes Certain,Pam Golding,NA,2000,2015-10-19T13:49:48Z,NA,100.299124801127
96042,bndrywll,No,No,Yes,1,3,3,1,1,Kloof Nek,NA,18.4100389,-33.9305333,Villa Maria,NA,Yes Certain,Villa Maria educare centre,Mool,1500,2015-10-19T08:15:40Z,NA,0
96027,bndrywll,No,Yes,No,0.5,0.5,0.25,1,2,Kloof,NA,18.4094435,-33.9309962,Bazzar Saturday,NA,Yes Certain,Bazzar,NA,10000,2015-10-19T08:33:28Z,NA,0
94706,bndrywll,No,Yes,No,0.1,0.5,0.05,1,1,Kloof,NA,18.4083572,-33.9323893,Asoka,NA,Yes Certain,Asoka,NA,2500,2015-10-19T09:00:27Z,NA,0
1505,bndrywll,No,Yes,No,1,3.8,3.8,1,1,Camp,NA,18.4081601,-33.9328889,Leelawadee thai spa,NA,Yes Certain,Leelawadee thai spa,NA,5000,2015-10-19T09:23:02Z,NA,0
1656,bndrywll,No,Yes,No,0.2,0.8,0.16000000000000003,1,1,Camp,NA,18.4081802,-33.9329079,Leelawadee thai spar,NA,Yes Certain,Business hours,NA,5000,2015-10-19T09:27:58Z,NA,0
1656,bndrywll,No,No,Yes,0.5,0.5,0.25,1,1,Camp,NA,18.4081493,-33.9328856,Leelswadee thai spa,NA,Yes Certain,Cchubb armed response,NA,5000,2015-10-19T09:32:04Z,2015-11-19T18:35:07Z,0
1511,bndrywll,No,No,Yes,0.3,0.5,0.15,1,1,Kloof,NA,18.4081788,-33.9329958,Blah blah bar,NA,Yes Certain,C.B.A.R,NA,2500,2015-10-19T09:36:31Z,NA,0
1656,bndrywll,No,No,Yes,1.5,2,3,1,1,Kloof,NA,18.4081547,-33.9330225,Blar blar bar,NA,Yes Certain,Erdmand contemporary art gslary,NA,2500,2015-10-19T09:39:48Z,NA,0
94836,cnopy,No,Yes,No,1.5,2,3,1,1,Orange,1 on Orange,18.4139282009236,-33.927604790252,Downhill Adventures,Downhill Adventures,Yes Certain,Downhill Adventures,NA,2500,2015-10-14T13:15:01Z,NA,88.0760081976228
94836,cnopy,No,Yes,No,0.5,2,1,1,1,Orange,1 on Orange,18.4138845592558,-33.9274820597379,Downhill Adventures,NA,Yes Certain,Downhill Adventures,NA,2000,2015-10-14T13:20:49Z,NA,81.6751353134508
94836,cnopy,Yes,Yes,No,1,7,7,2,1,Orange,1 on Orange,18.4135661503193,-33.9273492163787,McDonalds,McDonalds,Yes Certain,McDonalds,NA,2000,2015-10-14T13:25:52Z,NA,78.3620635404425
94836,cnopy,Yes,Yes,No,1,1,1,1,2,Kloof,1 on Kloof,18.4135016435664,-33.9273968758857,McDonalds,McDonalds,Yes Certain,McDonalds,NA,1030,2015-10-14T13:37:20Z,NA,73.1634330986025
94836,cnopy,No,Yes,No,0.3,5,1.5,1,1,Kloof,1 on Kloof,18.4132364293843,-33.927499828999,Best of Asia,NA,Yes Certain,Best of Asia,NA,2000,2015-10-14T13:48:31Z,2015-11-19T17:16:14Z,59.0817457742954
94811,cnopy,Yes,Yes,No,0.5,1.5,0.75,1,2,Kloof,45 on Kloof,18.412226383294,-33.9286039360366,Kloof Corner Shop,NA,Yes Certain,Kloof Corner Shop,NA,1450,2015-10-15T11:36:30Z,NA,40.6063123024897
94811,cnopy,Yes,Yes,No,0.5,2,1,1,1,Kloof,45 on Kloof,18.4121032735473,-33.9286071790001,Paez,Paez,Yes Certain,Paez,NA,850,2015-10-15T11:42:19Z,NA,67.1512686014579
96137,cnopy,Yes,Yes,No,1,1.5,1.5,2,4,Kloof,8 on Kloof,18.4119988057161,-33.928700027587396,A&A Furnishers,NA,Yes Certain,A&A Furnishers,NA,NA,2015-10-15T11:46:12Z,NA,74.6532343008256
96137,cnopy,Yes,Yes,No,0.4,5,2,1,1,Kloof,8 on Kloof,18.4118691908231,-33.928940294351,A&A Furnishers,NA,Yes Certain,A&A Furnishers,NA,2000,2015-10-15T11:52:59Z,NA,74.9755251697015
96137,cnopy,Yes,Yes,No,1,1,1,1,2,Kloof,8 on Kloof,18.411952164726902,-33.9289193420533,A&A Furnishers,NA,Yes Certain,A&A Furnishers,NA,1200,2015-10-15T11:58:04Z,NA,73.1360420576077
96137,cnopy,Yes,Yes,No,1,2.5,2.5,1,1,Rheede,8 on Kloof,18.4121104263325,-33.9290878027814,Mabu Vinyl,NA,Yes Certain,Mabu Vinyl,NA,2200,2015-10-15T12:01:58Z,NA,75.384684324876
96137,cnopy,Yes,Yes,No,1,2,2,1,2,Rheede,Rheede Centre,18.4121920768962,-33.9292305558664,Thai Orchid,NA,Yes Certain,Thai Orchid Massage,NA,2000,2015-10-15T12:06:26Z,NA,74.9552684488516
96137,cnopy,No,Yes,No,1,1,1,1,2,Rheede,Rheede Centre,18.4122247514335,-33.9291820629602,Europa Hair Studio,NA,Yes Certain,Europa Hair Studio,NA,1250,2015-10-15T12:09:52Z,NA,74.2231498364014
96137,cnopy,No,Yes,No,1,2,2,1,2,Rheede,Rheede Centre,18.4122082971034,-33.9292335093709,La Casa,NA,Yes Certain,La Casa,NA,2000,2015-10-15T12:13:24Z,NA,75.0597471856698
96137,cnopy,No,Yes,No,0.7,1.5,1.0499999999999998,1,1,Rheede,Rheede Centre,18.4122190700141,-33.9292642303652,La Casa,NA,Yes Certain,La Casa,NA,2000,2015-10-15T12:16:29Z,NA,71.8303296127651
96137,cnopy,Yes,Yes,No,1,1.5,1.5,1,2,Rheede,Rheede Centre,18.4121644,-33.9291652,Rheede street mall,NA,Yes Certain,Rheede street mall,NA,2100,2015-10-15T12:23:21Z,NA,0
96137,cnopy,No,Yes,No,1,2,2,1,2,Rheede,Rheede Centre,18.4123526839834,-33.9292895493448,Gardens Laundry,NA,Yes Certain,Gardens Laundry,NA,2100,2015-10-15T12:30:50Z,NA,69.1169226897354
96137,cnopy,Yes,Yes,No,1.5,5,7.5,1,1,Rheede,Rheede Centre,18.4123258356199,-33.9293077228913,Sawaddee,NA,Yes Certain,Sawaddee,NA,2000,2015-10-15T12:35:19Z,NA,64.3976539820118
96137,cnopy,Yes,Yes,No,0.8,1.5,1.2000000000000002,1,2,Rheede,Rheede Centre,18.4122378,-33.9292582,Lost Property,NA,Yes Certain,Lost Property,NA,1500,2015-10-15T12:40:29Z,NA,0
96137,cnopy,No,Yes,No,0.5,1.5,0.75,1,1,Rheede,Rheede Centre,18.4124067552159,-33.9293579714117,Rheede Centre,NA,Yes Certain,Premises to let,NA,1450,2015-10-15T12:50:20Z,NA,80.9421164970782
96137,cnopy,Yes,Yes,No,0.3,2,0.6,1,1,Rheede,Rheede Centre,18.412275421042,-33.9292515976657,Royal Antiques,NA,Yes Certain,Royal Antiques,NA,2500,2015-10-15T12:27:13Z,NA,75.7521304536125
94863,cnopy,Yes,Yes,No,0.2,1,0.2,1,2,Kloof,77 on Kloof,18.4103902380021,-33.930284458267,Ashanti,NA,Yes Certain,Ashanti,NA,950,2015-10-15T14:34:36Z,NA,85.4746428978205
161541,cnopy,No,Yes,No,1,2,2,1,2,Kloof,Lifestyle Kloof,18.4111140665099,-33.9297253760818,Wellness warehouse,Wellness warehouse,Yes Certain,Wellness warehouse,NA,2100,2015-10-15T15:09:02Z,NA,79.0929637088467
161541,cnopy,No,Yes,No,0.5,3,1.5,1,2,Kloof street,Lifestyle Kloof,18.4109987011444,-33.9295639478705,Siya zama,Siya zama,Yes Certain,Siya zama,NA,2950,2015-10-15T15:12:48Z,NA,77.1827652875773
161541,cnopy,No,Yes,No,0.5,3,1.5,1,2,Kloof street,Lifestyle Kloof,18.4109788045816,-33.9296157642208,Muse,Muse,Yes Certain,Muse,NA,2950,2015-10-15T15:16:09Z,NA,80.3926863876231
161541,cnopy,No,Yes,No,3,0.5,1.5,5,2,Kloof street,Lifestyle Kloof,18.4110859964428,-33.9296846068701,Wellness warehouse,Wellness warehouse,Yes Certain,Lookwell,NA,3500,2015-10-15T15:20:54Z,NA,78.9433107735193
161541,cnopy,No,Yes,No,3,0.5,1.5,2,2,Kloof street,Lifestyle Kloof,18.4112977128867,-33.9293389183019,Wellness warehouse,Wellness warehouse,Yes Certain,Eat well,NA,3500,2015-10-15T15:25:30Z,NA,76.1077837081079
161541,cnopy,No,Yes,No,0.3,1,0.3,1,2,Kloof street,Wellness warehouse,18.4114688626119,-33.9294475616076,Aliverti,Aliverti,Yes Certain,Aliverti,NA,1450,2015-10-15T15:35:41Z,NA,91.688087607691
161541,cnopy,Yes,Yes,No,0.5,3,1.5,1,2,Kloof street,Wellness warehouse,18.4114688626119,-33.9294475616076,Sushi box,Sushi box,Yes Certain,Sushi box,NA,2950,2015-10-15T15:39:45Z,NA,89.6760815223717
161541,cnopy,No,Yes,No,0.5,1.5,0.75,1,2,Kloof street,Wellness warehouse,18.4113611436721,-33.929380952974,Blue collar,Blue collar,Yes Certain,Blue collar,NA,1500,2015-10-15T15:42:45Z,NA,86.0331931729341
161541,cnopy,Yes,Yes,No,1,1,1,1,2,Kloof street,Wellness warehouse,18.41137877895,-33.929283742534,Parking,Parking,Yes Certain,Interpark,NA,4000,2015-10-15T15:45:55Z,NA,93.6724768114229
161541,cnopy,Yes,Yes,No,0.5,3,1.5,1,2,Kloof street,Wellness warehouse,18.4114100917263,-33.9292311257721,Kauai,Kauai,Yes Certain,Kauai,NA,2950,2015-10-15T15:48:47Z,NA,83.5941275691255
161541,cnopy,Yes,Yes,No,0.5,3,1.5,1,2,Kloof street,Lifestyle Kloof,18.4114151907817,-33.9292583230145,Muse,Muse,Yes Certain,Muse,NA,2950,2015-10-15T15:51:32Z,NA,80.2778230166932
161541,cnopy,No,Yes,No,0.5,5,2.5,1,1,Kloof street,Lifestyle Kloof,18.4113469235648,-33.9293472280073,Wellness warehouse,Wellness warehouse,Yes Certain,Pharmacy,NA,2950,2015-10-16T09:34:21Z,NA,79.3624468792861
94443,cnopy,Yes,Yes,No,0.5,3,1.5,1,1,Kloof street,4 Kloof,18.4117502346522,-33.9289386228943,Vidae Caffe,Vidae Caffe,Yes Certain,Vidae Caffe,NA,2450,2015-10-16T09:52:15Z,NA,67.8810995494564
94443,cnopy,No,Yes,No,0.5,4,2,1,1,Kloof street,NA,18.4116994794771,-33.9288321631532,Vonzipper,Vonzipper,Yes Certain,Vonzipper,NA,2450,2015-10-16T09:57:44Z,NA,72.7399259348616
94443,cnopy,No,Yes,No,0.5,3,1.5,1,1,Kloof street,4 Kloof,18.4116782054271,-33.9287997741483,A store,A store,Yes Certain,A store,NA,2450,2015-10-16T10:01:11Z,2015-11-24T20:04:37Z,64.8144826706198
94443,cnopy,No,No,No,0.5,2,1,1,1,Kloof street,4 Kloof,18.4117786028088,-33.9287722870746,A list,A list,Yes Certain,A list,NA,2450,2015-10-16T10:05:19Z,NA,68.6637167081101
94443,cnopy,Yes,Yes,No,0.5,2,1,1,1,Kloof street,4 Kloof,18.4118546085713,-33.9287083918394,Metropolis,Metropolis,Yes Certain,Metropolis,NA,2450,2015-10-16T10:12:20Z,NA,58.2545440883939
153690,cnopy,No,Yes,No,0.5,1,0.5,1,1,Kloof street,Growth point,18.4121812155023,-33.928401405654,IPMT,IPMT,Yes Certain,IPMT,NA,1000,2015-10-16T10:15:41Z,NA,66.7854189586935
96068,cnopy,No,Yes,No,0.5,2.5,1.25,1,1,Kloof street,8 on Kloof,18.4131835477192,-33.9274680413338,Buitenkloof studios,Buitenkloof studios,Yes Certain,Buitenkloof studios,NA,2450,2015-10-16T11:59:21Z,NA,82.2794751424888
96229,cnopy,Yes,No,Yes,0.5,1.5,0.75,1,2,Kloof street,Kwik spar on Kloof,18.4124011978531,-33.9280765224709,Kwik spar,Kwik spar,Yes Certain,Kwik spar,Standard bank,1450,2015-10-16T10:29:32Z,NA,71.5904915238879
149639,cnopy,No,No,No,0.5,1.5,0.75,1,2,Kloof street,18 on Kloof,18.4127383631099,-33.9279369818198,BardeÄºlis,Bardellis,Yes Certain,Bardellis,NA,3450,2015-10-16T11:03:10Z,NA,65.7221566532879
149639,cnopy,No,Yes,No,0.5,2,1,1,1,Kloof street,18 on Kloof,18.4127753068214,-33.927963912207,Bardellis,Bardellis,Yes Certain,Bardellis,NA,4000,2015-10-16T11:07:38Z,NA,72.2700264111219
96068,cnopy,No,Yes,No,0.5,5,2.5,1,1,Kloof street,8 on Kloof,18.41335676032,-33.9273363636362,Dogon group,Dogon group,Yes Certain,Dogon group,NA,3000,2015-10-16T12:04:43Z,NA,76.1498695919926
96068,cnopy,Yes,Yes,No,0.5,3,1.5,1,1,Buitensingel,8 on Kloof,18.4133859519593,-33.9269884158231,FNB,FNB,Yes Certain,FNB,NA,3000,2015-10-16T12:13:48Z,NA,68.0711317179779
96068,cnopy,No,Yes,No,0.5,4,2,1,1,Kloof,8 on Kloof,18.4133506895409,-33.9273038156865,Baseline,Baseline,Yes Certain,Baseline,NA,2950,2015-10-16T12:08:42Z,NA,70.5935614933025
96068,cnopy,No,Yes,No,0.5,3,1.5,1,1,Buitensingel,8 on Kloof,18.4133861595827,-33.9270235329673,Buitenkloof studios,Buitenkloof studios,Yes Certain,Buitenkloof,NA,3000,2015-10-16T12:18:42Z,NA,69.7058098184105
152956,cnopy,Yes,Yes,No,0.7,0.7,0.48999999999999994,1,2,Kloof,99 A Kloof,18.4096885181797,-33.9311712594944,Picturesque,NA,Yes Certain,Picturesque,NA,650,2015-10-16T14:41:44Z,NA,-35.6438573183437
94992,cnopy,No,Yes,No,2,1.5,3,2,1,Kloof,101 on Kloof,18.4094029760125,-33.9313359644329,Labels4less,NA,Yes Certain,Labes4less,NA,145,2015-10-16T14:45:13Z,2015-10-16T14:50:06Z,85.928622194062
94992,cnopy,No,Yes,No,0.7,3,2.0999999999999996,2,1,Kloof,101 on Kloof,18.4093526313876,-33.9314581842173,Labels4less,NA,Yes Certain,Labels4less,NA,1800,2015-10-16T14:50:19Z,2015-11-19T17:26:25Z,83.7764865017171
94992,cnopy,No,Yes,No,0.5,3,1.5,2,1,Weltevreden,101 on Kloof,18.4093067714761,-33.9315773899825,Label4less,NA,Yes Certain,Labels4less,NA,1800,2015-10-16T14:54:08Z,NA,82.5679883831177
94992,cnopy,Yes,Yes,No,0.5,1,0.5,1,1,Kloof,101 on Kloof,18.4093436975538,-33.9316131245739,Rose on Kloof,NA,Yes Certain,Rose on Kloof,NA,1800,2015-10-16T14:58:20Z,NA,87.1400938851882
94992,cnopy,No,Yes,No,0.5,1,0.5,1,1,Weltevrede,101 on Kloof,18.4094162882973,-33.9316575062704,Labels4less,NA,Yes Certain,Labels4less,NA,950,2015-10-16T15:02:25Z,NA,84.1940391233556
96032,cnopy,Yes,Yes,No,1,2,2,2,1,Kloof,Palmhof sentrum,18.4090238071062,-33.9319520236202,Seeff,NA,Yes Certain,Seeff,NA,200,2015-10-16T15:10:24Z,NA,87.0480359405967
96032,cnopy,No,Yes,No,1,10,10,1,1,Union,Palmhof Sentrum,18.4090739929219,-33.9322058439263,Chas Everitt,NA,Yes Certain,Chas Everitt,NA,250,2015-10-16T15:17:17Z,NA,74.2956154060605
163560,cnopy,Yes,Yes,No,1,2,2,1,2,Kloof,Kloof street junction,18.408574876686,-33.9321782065222,Domino' Pizza,NA,Yes Certain,Domino's Pizza,NA,2400,2015-10-19T11:12:44Z,NA,88.2556880711676
163560,cnopy,Yes,Yes,No,1,5.5,5.5,1,1,Kloof street,Kloof street junction,18.408528078871,-33.9321660321646,Domino's Pizza,NA,Yes Certain,Domino's Pizza,NA,2000,2015-10-19T11:19:19Z,NA,96.2779035231117
163560,cnopy,Yes,Yes,No,1,3,3,1,1,Kloof,Kloof street junction,18.4084023912309,-33.9321788924887,Royo Kloof,NA,Yes Certain,Royo Kloof,NA,2000,2015-10-19T11:23:07Z,NA,96.4623436131957
163560,cnopy,Yes,Yes,No,0.8,1.5,1.2000000000000002,1,2,Kloof,Kloof street junction,18.4085483765421,-33.932215150066,Royal Kitchen,NA,Yes Certain,Royal Kitchen,NA,1550,2015-10-19T11:28:41Z,NA,100.307119582472
163560,cnopy,No,Yes,No,1,2,2,1,1,Kloof,Kloof street junction,18.4085486418328,-33.9322961958848,Cream,NA,Yes Certain,Cream,NA,2000,2015-10-19T11:31:54Z,NA,78.4832873500219
163560,cnopy,Yes,Yes,No,0.6,1,0.6,1,2,Kloof,Kloof street junction,18.4083892510346,-33.9322507736236,Cream,NA,Yes Certain,Cream,NA,1300,2015-10-19T11:35:29Z,NA,86.135536837604
163560,cnopy,Yes,Yes,No,0.5,2,1,1,1,Kloof,Kloof street junction,18.4085238495512,-33.9322902293194,Tiara,NA,Yes Certain,Tiara,NA,2000,2015-10-19T11:40:39Z,NA,91.6865394398028
163560,cnopy,Yes,Yes,No,0.5,0.6,0.3,1,2,Kloof,Kloof street junction,18.4085634860615,-33.932346132079,Tiara,NA,Yes Certain,Tiara,NA,700,2015-10-19T11:46:24Z,NA,91.272557106385
163560,cnopy,No,Yes,No,0.8,1,0.8,1,2,Kloof,Kloof street junction,18.408501264926,-33.9323570755858,Tiara,NA,Yes Certain,Boutique,NA,1000,2015-10-19T11:50:08Z,NA,90.2585164591955
163560,cnopy,No,Yes,No,1,1.1,1.1,1,1,Kloof,Kloof street junction,18.408540135611,-33.9323523652506,Tiara,NA,Yes Certain,Tiara,NA,1100,2015-10-19T11:52:48Z,NA,91.5829375042337
163560,cnopy,No,No,No,0.5,5,2.5,NA,1,Kloof,Kloof street junction,18.4085753645485,-33.9323829310771,Save More,NA,Yes Certain,Save More,NA,2000,2015-10-19T11:55:41Z,2015-11-24T20:13:55Z,87.4313797708744
163560,cnopy,Yes,Yes,No,0.5,2,1,1,2,Kloof,Kloof street junction,18.4086017936985,-33.93241664426,Save More,NA,Yes Certain,Save More,NA,2000,2015-10-19T11:58:46Z,NA,88.8297550948383
163560,cnopy,Yes,Yes,No,0.2,1.5,0.30000000000000004,1,1,Kloof,Kloof street junction,18.4085679520422,-33.9324666665313,Arigato,NA,Yes Certain,Arigato,NA,2000,2015-10-19T12:01:49Z,NA,86.755262683585
163560,cnopy,Yes,Yes,No,0.3,1,0.3,1,2,Kloof,Kloof street junction,18.4086004435255,-33.932480520167,Arigato,NA,Yes Certain,Arigato,NA,1000,2015-10-19T12:04:24Z,NA,89.1400512727468
163560,cnopy,No,Yes,No,0.2,2.5,0.5,1,1,Kloof,Kloof street junction,18.4085646581395,-33.9325245392425,Zen,Zen,Yes Certain,Zen healing massage center,NA,2000,2015-10-19T12:08:23Z,NA,89.1663467687083
163560,cnopy,Yes,Yes,No,0.7,1.5,1.0499999999999998,1,2,Kloof,Kloof,18.4085658481768,-33.9324937409485,Zen,NA,Yes Certain,Zen,NA,2000,2015-10-19T12:11:56Z,NA,92.595159489305
163560,cnopy,No,Yes,No,0.3,2,0.6,1,1,Kloof,Kloof street junction,18.4084891684488,-33.9324961327411,Cozier,NA,Yes Certain,Cozier,NA,2000,2015-10-19T12:18:07Z,NA,92.0713942031617
163560,cnopy,No,Yes,No,0.5,1,0.5,1,2,Kloof,Kloof street junction,18.4084645886714,-33.9324957104528,Cozier,NA,Yes Certain,Cozier,NA,1000,2015-10-19T12:21:02Z,NA,90.6213545498184
163560,cnopy,Yes,Yes,No,0.5,1,0.5,2,1,Kloof,Kloof street junction,18.4084929831009,-33.9325376680876,Action TV,NA,Yes Certain,Action TV,NA,1000,2015-10-19T12:29:08Z,NA,89.2111831882226
163560,cnopy,No,Yes,No,0.3,3,0.8999999999999999,1,1,Kloof,Kloof street junction,18.4083374372245,-33.9326591439437,Action TV,NA,Yes Certain,Action TV,NA,2000,2015-10-19T12:32:32Z,NA,96.2154709771167
163560,cnopy,No,No,Yes,0.1,0.3,0.03,1,1,Kloof,Kloof street junction,18.4082661895331,-33.932904400649,Yindee's,NA,Yes Certain,Yindee's,Chubb,1000,2015-10-19T12:39:48Z,NA,106.896523036758
2250,cnopy,Yes,Yes,No,0.5,1,0.5,1,2,Kloof,167 on Kloof,18.4068205049215,-33.935084489722,Antiques on Kloof,NA,Yes Certain,Antiques on Kloof,NA,950,2015-10-19T13:07:26Z,NA,111.367951352915
2250,cnopy,No,Yes,No,0.2,4,0.8,1,1,Kloof,161 on Kloof,18.4067555456577,-33.93506488968,Hair Tamers,NA,Yes Certain,Hair Tamers,NA,2000,2015-10-19T13:11:12Z,NA,113.933128232331
2250,cnopy,Yes,Yes,No,0.5,1,0.5,1,2,Kloof,161 on Kloof,18.4067751833261,-33.9349745499715,Hair Tamers,NA,Yes Certain,Hair Tamers,NA,1300,2015-10-19T13:13:54Z,NA,117.255755238371
2582,cnopy,No,Yes,No,0.4,0.5,0.2,2,2,Kloof,153 on Kloof,18.4069407885049,-33.9348220491305,Greeff,NA,Yes Certain,Greeff,NA,500,2015-10-19T13:26:47Z,NA,112.114317333042
2528,cnopy,No,Yes,No,0.5,5,2.5,1,1,Kloof,153 on Kloof,18.4069267304462,-33.9347841583433,Greeff,NA,Yes Certain,Greedy Properties,NA,1600,2015-10-19T13:32:19Z,NA,116.604019213529
1485,cnopy,No,Yes,No,1,2,2,1,1,Kloof,151 on Kloof,18.407092677645,-33.9345952945008,Manna,NA,Yes Certain,Manna,NA,300,2015-10-19T13:36:28Z,NA,109.972081300309
1487,cnopy,No,Yes,No,0.2,1.5,0.30000000000000004,1,1,Kloof,147 on  Kloof,18.4072242982495,-33.934509517249,Citi,NA,Yes Certain,Citi,NA,1000,2015-10-19T13:40:08Z,NA,107.021828338112
1496,cnopy,No,Yes,No,0.4,1.5,0.6000000000000001,1,1,Kloof,139 on Kloof,18.407414797589,-33.9342230925656,Steer,NA,Yes Certain,Steer,NA,1000,2015-10-19T13:53:31Z,2015-11-19T17:48:23Z,103.594639940339
94630,cnopy,No,Yes,No,0.5,15,7.5,1,1,Kloof,NA,18.4097064,-33.9307915,Arnolds Restaurant,NA,Yes Certain,A,NA,2500,2015-10-19T08:30:25Z,NA,0
168166,cnopy,No,Yes,No,1,3,3,1,1,Kloof,NA,18.4084672,-33.9321801,Slug and lettuce,NA,Yes Certain,Slug and lettuce,NA,1500,2015-10-19T08:41:32Z,NA,0
94704,cnopy,Yes,Yes,No,0.5,0.5,0.25,1,2,Kloof,NA,18.4084779,-33.9322246,Slug and Lettuce,NA,Yes Certain,Slug and lettuce,NA,1500,2015-10-19T08:44:52Z,NA,0
94704,cnopy,No,Yes,No,0.5,2,1,1,1,Kloof,NA,18.408435,-33.9322269,Slug and lettuce,NA,Yes Certain,Slug and  lettuce,NA,1500,2015-10-19T08:47:18Z,NA,0
94705,cnopy,No,Yes,No,1,3,3,1,1,Kloof,NA,18.4083626,-33.9322892,Topolino Cafe,NA,Yes Certain,Topolino Cafe,NA,1500,2015-10-19T08:57:42Z,NA,0
94706,cnopy,Yes,Yes,No,1,3.5,3.5,1,1,Kloof,NA,18.4082023,-33.932924,Remax,NA,Yes Certain,Remax,NA,3500,2015-10-19T09:10:20Z,NA,0
1657,cnopy,No,No,Yes,1,2.8,2.8,1,1,Kloof,NA,18.408203,-33.9329418,Remax,NA,Yes Certain,Watching over your neighbourhood,NA,2800,2015-10-19T09:16:18Z,NA,0
1657,cnopy,No,Yes,No,3,1,3,5,2,Kloof,NA,18.4082057,-33.9329206,Remax,NA,Yes Certain,Remax,NA,2500,2015-10-19T09:04:13Z,2015-10-19T09:22:46Z,0
2700,cnopy,No,Yes,No,0.5,5,2.5,1,1,Kloof,NA,18.4078181,-33.9334887,Swift dry cleaners,NA,Yes Certain,Swift laundry,NA,2500,2015-10-19T09:55:19Z,NA,0
2700,cnopy,No,Yes,No,1,0.5,0.5,1,1,Kloof,NA,18.4077296,-33.9336189,Melissa's food shop,NA,Yes Certain,Mellissa's the food shop,NA,2500,2015-10-19T10:06:28Z,NA,0
2700,cnopy,No,Yes,No,0.5,2,1,1,1,Kloof,NA,18.4076853,-33.9336917,Arabesqusre,NA,Yes Certain,Arabesque,NA,2500,2015-10-19T10:10:04Z,NA,0
3001,cnopy,Yes,Yes,No,1,4,4,2,1,Kloof,NA,18.4074989,-33.9338659,Valpre Spring Water,NA,Yes Certain,Coca Cola valpre,NA,500,2015-10-19T11:01:10Z,2015-10-19T11:04:26Z,0
3001,cnopy,Yes,No,Yes,0.5,2,1,1,1,Kloof,NA,18.4074895,-33.9338859,BAGRAIN attorney,NA,Yes Certain,Bagrains Attineys,NA,1500,2015-10-19T11:04:36Z,NA,0
1593,cnopy,No,Yes,No,1,4,4,1,1,Kloof,NA,18.4070791,-33.9344345,I love my hood,NA,Yes Certain,I love my hood,NA,1500,2015-10-19T11:18:04Z,NA,0
2593,cnopy,No,Yes,No,1,2,2,1,1,Kloof,NA,18.407063,-33.9344567,I love my hood,NA,Yes Certain,Now Showing,NA,1500,2015-10-19T11:22:55Z,NA,0
1599,cnopy,No,Yes,No,1,1,1,NA,2,Kloof,NA,18.4069142,-33.934627,Orange Eleven,NA,Yes Certain,Orange eleven,NA,1250,2015-10-19T11:25:41Z,NA,0
2700,cnopy,No,Yes,No,0.5,5,2.5,1,1,Kloof,NA,18.4078053,-33.9335132,Swift dry cleaners,NA,Yes Certain,Swift dry cleaners,NA,3,2015-10-19T09:59:41Z,NA,0
